SL-16 R/B               
1 26070U 00006B   26106.45762619 -.00000204  00000+0 -79211-4 0  9997
2 26070  71.0044  18.4225 0014734 129.2755 230.9677 14.15828800353906
TITAN 4B R/B            
1 26474U 00047B   26106.79047294  .00001632  00000+0  10710-3 0  9994
2 26474  67.9867 293.3451 0041494 351.4588   8.5849 15.09871425398669
ENVISAT                 
1 27386U 02009A   26106.84619184  .00000033  00000+0  24601-4 0  9995
2 27386  98.3787  59.5502 0001142  84.5332 296.2378 14.39049716264664
IDEFIX & ARIANE 42P R/B 
1 27422U 02021B   26106.53195398  .00000130  00000+0  66018-4 0  9998
2 27422  98.5911  44.6963 0012995  77.0372 283.2262 14.31051195249433
AQUA                    
1 27424U 02022A   26106.86729028  .00000483  00000+0  10608-3 0  9994
2 27424  98.4234  74.9466 0001826 105.4831 283.2829 14.62060709274312
CZ-4B R/B               
1 27432U 02024C   26106.64195295  .00000020  00000+0  33234-4 0  9992
2 27432  98.8762 159.8432 0049039 275.2826 196.4429 14.14554279234601
MIDORI II (ADEOS-II)    
1 27597U 02056A   26106.60587751  .00000163  00000+0  81764-4 0  9996
2 27597  98.7831  65.3616 0000335 143.3690 216.7514 14.29313519215712
H-2A R/B                
1 27601U 02056E   26106.62280580  .00000183  00000+0  78374-4 0  9999
2 27601  98.3265  65.5599 0071204  49.2578 122.9440 14.33787605219546
CZ-4B R/B               
1 28059U 03049C   26106.54927389  .00000231  00000+0  64555-4 0  9996
2 28059  98.6899 102.9480 0049223 115.5819 245.0476 14.55053567192101
CZ-2C R/B               
1 28222U 04012C   26106.60732786  .00043560  00000+0  37246-3 0  9999
2 28222  97.7153 175.6168 0013993 166.9211 193.2416 15.69232736210211
SL-16 R/B               
1 28353U 04021B   26106.85391141 -.00000014  00000+0  17749-4 0  9992
2 28353  71.0002 152.4054 0006416 320.1742  39.8908 14.14605831128236
CZ-4B R/B               
1 28415U 04035C   26106.59531963  .00004244  00000+0  14803-3 0  9990
2 28415  97.3436 140.3878 0031400 190.7668 169.2904 15.29700963185704
CZ-2C R/B               
1 28480U 04046B   26106.69967596  .00000097  00000+0  50866-4 0  9992
2 28480  98.1973  19.3145 0140322  42.8596 318.3422 14.27007148113923
