[
    {
        "OBJECT_NAME": "SL-16 R/B",
        "OBJECT_ID": "2000-006B",
        "EPOCH": "2026-04-16T10:58:58.902816",
        "MEAN_MOTION": 14.158288,
        "ECCENTRICITY": 0.0014734,
        "INCLINATION": 71.0044,
        "RA_OF_ASC_NODE": 18.4225,
        "ARG_OF_PERICENTER": 129.2755,
        "MEAN_ANOMALY": 230.9677,
        "EPHEMERIS_TYPE": 0,
        "CLASSIFICATION_TYPE": "U",
        "NORAD_CAT_ID": 26070,
        "ELEMENT_SET_NO": 999,
        "REV_AT_EPOCH": 35390,
        "BSTAR": -7.9211e-05,
        "MEAN_MOTION_DOT": -2.04e-06,
        "MEAN_MOTION_DDOT": 0
    },
    {
        "OBJECT_NAME": "TITAN 4B R/B",
        "OBJECT_ID": "2000-047B",
        "EPOCH": "2026-04-16T18:58:16.862016",
        "MEAN_MOTION": 15.09871425,
        "ECCENTRICITY": 0.0041494,
        "INCLINATION": 67.9867,
        "RA_OF_ASC_NODE": 293.3451,
        "ARG_OF_PERICENTER": 351.4588,
        "MEAN_ANOMALY": 8.5849,
        "EPHEMERIS_TYPE": 0,
        "CLASSIFICATION_TYPE": "U",
        "NORAD_CAT_ID": 26474,
        "ELEMENT_SET_NO": 999,
        "REV_AT_EPOCH": 39866,
        "BSTAR": 0.0001071,
        "MEAN_MOTION_DOT": 1.632e-05,
        "MEAN_MOTION_DDOT": 0
    },
    {
        "OBJECT_NAME": "ENVISAT",
        "OBJECT_ID": "2002-009A",
        "EPOCH": "2026-04-16T20:18:30.974976",
        "MEAN_MOTION": 14.39049716,
        "ECCENTRICITY": 0.0001142,
        "INCLINATION": 98.3787,
        "RA_OF_ASC_NODE": 59.5502,
        "ARG_OF_PERICENTER": 84.5332,
        "MEAN_ANOMALY": 296.2378,
        "EPHEMERIS_TYPE": 0,
        "CLASSIFICATION_TYPE": "U",
        "NORAD_CAT_ID": 27386,
        "ELEMENT_SET_NO": 999,
        "REV_AT_EPOCH": 26466,
        "BSTAR": 2.4601e-05,
        "MEAN_MOTION_DOT": 3.3e-07,
        "MEAN_MOTION_DDOT": 0
    },
    {
        "OBJECT_NAME": "IDEFIX & ARIANE 42P R/B",
        "OBJECT_ID": "2002-021B",
        "EPOCH": "2026-04-16T12:46:00.823872",
        "MEAN_MOTION": 14.31051195,
        "ECCENTRICITY": 0.0012995,
        "INCLINATION": 98.5911,
        "RA_OF_ASC_NODE": 44.6963,
        "ARG_OF_PERICENTER": 77.0372,
        "MEAN_ANOMALY": 283.2262,
        "EPHEMERIS_TYPE": 0,
        "CLASSIFICATION_TYPE": "U",
        "NORAD_CAT_ID": 27422,
        "ELEMENT_SET_NO": 999,
        "REV_AT_EPOCH": 24943,
        "BSTAR": 6.6018e-05,
        "MEAN_MOTION_DOT": 1.3e-06,
        "MEAN_MOTION_DDOT": 0
    },
    {
        "OBJECT_NAME": "AQUA",
        "OBJECT_ID": "2002-022A",
        "EPOCH": "2026-04-16T20:48:53.880192",
        "MEAN_MOTION": 14.62060709,
        "ECCENTRICITY": 0.0001826,
        "INCLINATION": 98.4234,
        "RA_OF_ASC_NODE": 74.9466,
        "ARG_OF_PERICENTER": 105.4831,
        "MEAN_ANOMALY": 283.2829,
        "EPHEMERIS_TYPE": 0,
        "CLASSIFICATION_TYPE": "U",
        "NORAD_CAT_ID": 27424,
        "ELEMENT_SET_NO": 999,
        "REV_AT_EPOCH": 27431,
        "BSTAR": 0.00010608,
        "MEAN_MOTION_DOT": 4.83e-06,
        "MEAN_MOTION_DDOT": 0
    },
    {
        "OBJECT_NAME": "CZ-4B R/B",
        "OBJECT_ID": "2002-024C",
        "EPOCH": "2026-04-16T15:24:24.734880",
        "MEAN_MOTION": 14.14554279,
        "ECCENTRICITY": 0.0049039,
        "INCLINATION": 98.8762,
        "RA_OF_ASC_NODE": 159.8432,
        "ARG_OF_PERICENTER": 275.2826,
        "MEAN_ANOMALY": 196.4429,
        "EPHEMERIS_TYPE": 0,
        "CLASSIFICATION_TYPE": "U",
        "NORAD_CAT_ID": 27432,
        "ELEMENT_SET_NO": 999,
        "REV_AT_EPOCH": 23460,
        "BSTAR": 3.3234e-05,
        "MEAN_MOTION_DOT": 2e-07,
        "MEAN_MOTION_DDOT": 0
    },
    {
        "OBJECT_NAME": "MIDORI II (ADEOS-II)",
        "OBJECT_ID": "2002-056A",
        "EPOCH": "2026-04-16T14:32:27.816864",
        "MEAN_MOTION": 14.29313519,
        "ECCENTRICITY": 3.35e-05,
        "INCLINATION": 98.7831,
        "RA_OF_ASC_NODE": 65.3616,
        "ARG_OF_PERICENTER": 143.369,
        "MEAN_ANOMALY": 216.7514,
        "EPHEMERIS_TYPE": 0,
        "CLASSIFICATION_TYPE": "U",
        "NORAD_CAT_ID": 27597,
        "ELEMENT_SET_NO": 999,
        "REV_AT_EPOCH": 21571,
        "BSTAR": 8.1764e-05,
        "MEAN_MOTION_DOT": 1.63e-06,
        "MEAN_MOTION_DDOT": 0
    },
    {
        "OBJECT_NAME": "H-2A R/B",
        "OBJECT_ID": "2002-056E",
        "EPOCH": "2026-04-16T14:56:50.421120",
        "MEAN_MOTION": 14.33787605,
        "ECCENTRICITY": 0.0071204,
        "INCLINATION": 98.3265,
        "RA_OF_ASC_NODE": 65.5599,
        "ARG_OF_PERICENTER": 49.2578,
        "MEAN_ANOMALY": 122.944,
        "EPHEMERIS_TYPE": 0,
        "CLASSIFICATION_TYPE": "U",
        "NORAD_CAT_ID": 27601,
        "ELEMENT_SET_NO": 999,
        "REV_AT_EPOCH": 21954,
        "BSTAR": 7.8374e-05,
        "MEAN_MOTION_DOT": 1.83e-06,
        "MEAN_MOTION_DDOT": 0
    },
    {
        "OBJECT_NAME": "CZ-4B R/B",
        "OBJECT_ID": "2003-049C",
        "EPOCH": "2026-04-16T13:10:57.264096",
        "MEAN_MOTION": 14.55053567,
        "ECCENTRICITY": 0.0049223,
        "INCLINATION": 98.6899,
        "RA_OF_ASC_NODE": 102.948,
        "ARG_OF_PERICENTER": 115.5819,
        "MEAN_ANOMALY": 245.0476,
        "EPHEMERIS_TYPE": 0,
        "CLASSIFICATION_TYPE": "U",
        "NORAD_CAT_ID": 28059,
        "ELEMENT_SET_NO": 999,
        "REV_AT_EPOCH": 19210,
        "BSTAR": 6.4555e-05,
        "MEAN_MOTION_DOT": 2.31e-06,
        "MEAN_MOTION_DDOT": 0
    },
    {
        "OBJECT_NAME": "CZ-2C R/B",
        "OBJECT_ID": "2004-012C",
        "EPOCH": "2026-04-16T14:34:33.127104",
        "MEAN_MOTION": 15.69232736,
        "ECCENTRICITY": 0.0013993,
        "INCLINATION": 97.7153,
        "RA_OF_ASC_NODE": 175.6168,
        "ARG_OF_PERICENTER": 166.9211,
        "MEAN_ANOMALY": 193.2416,
        "EPHEMERIS_TYPE": 0,
        "CLASSIFICATION_TYPE": "U",
        "NORAD_CAT_ID": 28222,
        "ELEMENT_SET_NO": 999,
        "REV_AT_EPOCH": 21021,
        "BSTAR": 0.00037246,
        "MEAN_MOTION_DOT": 0.0004356,
        "MEAN_MOTION_DDOT": 0
    },
    {
        "OBJECT_NAME": "SL-16 R/B",
        "OBJECT_ID": "2004-021B",
        "EPOCH": "2026-04-16T20:29:37.945824",
        "MEAN_MOTION": 14.14605831,
        "ECCENTRICITY": 0.0006416,
        "INCLINATION": 71.0002,
        "RA_OF_ASC_NODE": 152.4054,
        "ARG_OF_PERICENTER": 320.1742,
        "MEAN_ANOMALY": 39.8908,
        "EPHEMERIS_TYPE": 0,
        "CLASSIFICATION_TYPE": "U",
        "NORAD_CAT_ID": 28353,
        "ELEMENT_SET_NO": 999,
        "REV_AT_EPOCH": 12823,
        "BSTAR": 1.7749e-05,
        "MEAN_MOTION_DOT": -1.4e-07,
        "MEAN_MOTION_DDOT": 0
    },
    {
        "OBJECT_NAME": "CZ-4B R/B",
        "OBJECT_ID": "2004-035C",
        "EPOCH": "2026-04-16T14:17:15.616032",
        "MEAN_MOTION": 15.29700963,
        "ECCENTRICITY": 0.00314,
        "INCLINATION": 97.3436,
        "RA_OF_ASC_NODE": 140.3878,
        "ARG_OF_PERICENTER": 190.7668,
        "MEAN_ANOMALY": 169.2904,
        "EPHEMERIS_TYPE": 0,
        "CLASSIFICATION_TYPE": "U",
        "NORAD_CAT_ID": 28415,
        "ELEMENT_SET_NO": 999,
        "REV_AT_EPOCH": 18570,
        "BSTAR": 0.00014803,
        "MEAN_MOTION_DOT": 4.244e-05,
        "MEAN_MOTION_DDOT": 0
    },
    {
        "OBJECT_NAME": "CZ-2C R/B",
        "OBJECT_ID": "2004-046B",
        "EPOCH": "2026-04-16T16:47:32.002944",
        "MEAN_MOTION": 14.27007148,
        "ECCENTRICITY": 0.0140322,
        "INCLINATION": 98.1973,
        "RA_OF_ASC_NODE": 19.3145,
        "ARG_OF_PERICENTER": 42.8596,
        "MEAN_ANOMALY": 318.3422,
        "EPHEMERIS_TYPE": 0,
        "CLASSIFICATION_TYPE": "U",
        "NORAD_CAT_ID": 28480,
        "ELEMENT_SET_NO": 999,
        "REV_AT_EPOCH": 11392,
        "BSTAR": 5.0866e-05,
        "MEAN_MOTION_DOT": 9.7e-07,
        "MEAN_MOTION_DDOT": 0
    }
]